NORAD_CAT_ID,OBJECT_NAME,OBJECT_TYPE,EPOCH,MEAN_MOTION,ECCENTRICITY,INCLINATION,RA_OF_ASC_NODE,ARG_OF_PERICENTER,MEAN_ANOMALY,BSTAR,MEAN_MOTION_DOT,MEAN_MOTION_DDOT,TLE_LINE0,TLE_LINE1,TLE_LINE2,SEMIMAJOR_AXIS,PERIOD,APOGEE,PERIGEE,DECAYED
53432.0,STARLINK-4557,PAYLOAD,2023-03-17 00:15:32,15.08813676,0.0001271,53.2161,311.1578,102.0051,258.1083,0.0011259,0.00017663,0.0,0 STARLINK-4557,1 53432U 22097AW  23076.01079672  .00017663  00000-0  11259-2 0  9990,2 53432  53.2161 311.1578 0001271 102.0051 258.1083 15.08813676 34439,6917.961,95.439,540.705,538.947,0.0
53432.0,STARLINK-4557,PAYLOAD,2023-03-17 20:55:33,15.08852086,0.0001125,53.2154,307.2916,100.8791,259.2328,0.0009456,0.00014798,0.0,0 STARLINK-4557,1 53432U 22097AW  23076.87191414  .00014798  00000-0  94560-3 0  9996,2 53432  53.2154 307.2916 0001125 100.8791 259.2328 15.08852086 34081,6917.843,95.437,540.487,538.93,0.0
53432.0,STARLINK-4557,PAYLOAD,2023-03-18 08:03:15,15.08855566,0.000101,53.215,305.21,97.7602,262.3505,0.00068271,0.00010599,0.0,0 STARLINK-4557,1 53432U 22097AW  23077.33559056  .00010599  00000-0  68271-3 0  9993,2 53432  53.2150 305.2100 0001010  97.7602 262.3505 15.08855566 34154,6917.833,95.437,540.397,538.999,0.0
53432.0,STARLINK-4557,PAYLOAD,2023-03-18 20:46:19,15.08851637,0.0001364,53.2147,302.829,85.5525,274.5622,0.0002887,4.311e-05,0.0,0 STARLINK-4557,1 53432U 22097AW  23077.86550925  .00004311  00000-0  28870-3 0  9993,2 53432  53.2147 302.8290 0001364  85.5525 274.5622 15.08851637 34233,6917.845,95.437,540.653,538.766,0.0
53432.0,STARLINK-4557,PAYLOAD,2023-03-18 22:21:43,15.0885241,0.0001336,53.2149,302.5318,85.8296,274.2849,0.00029579,4.424e-05,0.0,0 STARLINK-4557,1 53432U 22097AW  23077.93174862  .00004424  00000-0  29579-3 0  9995,2 53432  53.2149 302.5318 0001336  85.8296 274.2849 15.08852410 34722,6917.842,95.437,540.632,538.783,0.0
53432.0,STARLINK-4557,PAYLOAD,2023-03-19 14:15:34,15.0884787,0.0001899,53.2149,299.5598,80.0644,280.0563,0.00015527,2.184e-05,0.0,0 STARLINK-4557,1 53432U 22097AW  23078.59414837  .00002184  00000-0  15527-3 0  9996,2 53432  53.2149 299.5598 0001899  80.0644 280.0563 15.08847870 34345,6917.856,95.437,541.035,538.408,0.0
53432.0,STARLINK-4557,PAYLOAD,2023-03-19 20:37:06,15.08844996,0.0001279,53.2153,298.37,83.4342,276.6796,5.517e-05,5.9e-06,0.0,0 STARLINK-4557,1 53432U 22097AW  23078.85910756  .00000590  00000-0  55170-4 0  9994,2 53432  53.2153 298.3700 0001279  83.4342 276.6796 15.08844996 34868,6917.865,95.437,540.615,538.845,0.0
53432.0,STARLINK-4557,PAYLOAD,2023-03-20 07:44:48,15.08845629,0.0001285,53.2148,296.2881,80.9648,279.1489,8.6227e-05,1.085e-05,0.0,0 STARLINK-4557,1 53432U 22097AW  23079.32278704  .00001085  00000-0  86227-4 0  9994,2 53432  53.2148 296.2881 0001285  80.9648 279.1489 15.08845629 34936,6917.863,95.437,540.617,538.839,0.0
53432.0,STARLINK-4557,PAYLOAD,2023-03-20 20:27:53,15.08846788,0.0001387,53.2145,293.9083,82.2878,277.8271,0.000166,2.355e-05,0.0,0 STARLINK-4557,1 53432U 22097AW  23079.85270646  .00002355  00000-0  16600-3 0  9997,2 53432  53.2145 293.9083 0001387  82.2878 277.8271 15.08846788 34531,6917.86,95.437,540.684,538.765,0.0
53432.0,STARLINK-4557,PAYLOAD,2023-03-21 20:18:40,15.08848805,0.0001253,53.2138,289.4471,82.2535,277.86,0.0002385,3.511e-05,0.0,0 STARLINK-4557,1 53432U 22097AW  23080.84630536  .00003511  00000-0  23850-3 0  9996,2 53432  53.2138 289.4471 0001253  82.2535 277.8600 15.08848805 35164,6917.853,95.437,540.585,538.852,0.0
53432.0,STARLINK-4557,PAYLOAD,2023-03-21 23:29:26,15.08853089,0.0001222,53.2139,288.8523,82.6514,277.4617,0.00031222,4.686e-05,0.0,0 STARLINK-4557,1 53432U 22097AW  23080.97878306  .00004686  00000-0  31222-3 0  9995,2 53432  53.2139 288.8523 0001222  82.6514 277.4617 15.08853089 34706,6917.84,95.437,540.551,538.86,0.0
53432.0,STARLINK-4557,PAYLOAD,2023-03-22 20:09:28,15.08844362,0.0001248,53.2139,284.9868,73.9809,286.1321,0.00016799,2.387e-05,0.0,0 STARLINK-4557,1 53432U 22097AW  23081.83990758  .00002387  00000-0  16799-3 0  9995,2 53432  53.2139 284.9868 0001248  73.9809 286.1321 15.08844362 34830,6917.867,95.437,540.595,538.869,0.0
53432.0,STARLINK-4557,PAYLOAD,2023-03-22 23:20:14,15.08845824,0.0001156,53.2137,284.3911,83.3858,276.7266,0.00020927,3.045e-05,0.0,0 STARLINK-4557,1 53432U 22097AW  23081.97238646  .00003045  00000-0  20927-3 0  9991,2 53432  53.2137 284.3911 0001156  83.3858 276.7266 15.08845824 35331,6917.863,95.437,540.527,538.928,0.0
53432.0,STARLINK-4557,PAYLOAD,2023-03-23 20:00:15,15.08846254,0.0001094,53.2137,280.5264,78.8849,281.2266,0.00033073,4.981e-05,0.0,0 STARLINK-4557,1 53432U 22097AW  23082.83350799  .00004981  00000-0  33073-3 0  9997,2 53432  53.2137 280.5264 0001094  78.8849 281.2266 15.08846254 35463,6917.861,95.437,540.483,538.969,0.0
53432.0,STARLINK-4557,PAYLOAD,2023-03-23 23:11:01,15.08849755,0.0001145,53.2142,279.9306,81.6137,278.4985,0.00073141,0.00011375,0.0,0 STARLINK-4557,1 53432U 22097AW  23082.96598849  .00011375  00000-0  73141-3 0  9996,2 53432  53.2142 279.9306 0001145  81.6137 278.4985 15.08849755 35002,6917.851,95.437,540.508,538.923,0.0
53432.0,STARLINK-4557,PAYLOAD,2023-03-24 05:32:33,15.0888639,0.000122,53.2147,278.7412,78.0054,282.1075,0.0019558,0.00031015,0.0,0 STARLINK-4557,1 53432U 22097AW  23083.23094452  .00031015  00000-0  19558-2 0  9992,2 53432  53.2147 278.7412 0001220  78.0054 282.1075 15.08886390 35046,6917.739,95.435,540.448,538.76,0.0
53432.0,STARLINK-4557,PAYLOAD,2023-03-24 11:54:05,15.08874404,0.000104,53.2142,277.5513,79.9536,280.1573,0.0012556,0.0001977,0.0,0 STARLINK-4557,1 53432U 22097AW  23083.49590038  .00019770  00000-0  12556-2 0  9996,2 53432  53.2142 277.5513 0001040  79.9536 280.1573 15.08874404 35083,6917.775,95.435,540.36,538.921,0.0
53432.0,STARLINK-4557,PAYLOAD,2023-03-24 19:51:00,15.08893353,0.0001035,53.2138,276.0648,81.7001,278.4109,0.0013307,0.00020984,0.0,0 STARLINK-4557,1 53432U 22097AW  23083.82708819  .00020984  00000-0  13307-2 0  9995,2 53432  53.2138 276.0648 0001035  81.7001 278.4109 15.08893353 35611,6917.717,95.434,540.298,538.866,0.0
53432.0,STARLINK-4557,PAYLOAD,2023-03-25 05:23:19,15.08852783,0.0001281,53.2136,274.2816,95.2163,264.8975,-0.00024546,-4.194e-05,0.0,0 STARLINK-4557,1 53432U 22097AW  23084.22453030 -.00004194  00000-0 -24546-3 0  9997,2 53432  53.2136 274.2816 0001281  95.2163 264.8975 15.08852783 35193,6917.841,95.437,540.592,538.82,0.0
53432.0,STARLINK-4557,PAYLOAD,2023-03-25 19:41:49,15.08779344,0.0001114,53.214,271.6045,128.5324,231.5768,0.00077003,0.00011968,0.0,0 STARLINK-4557,1 53432U 22097AW  23084.82071387  .00011968  00000-0  77003-3 0  9995,2 53432  53.2140 271.6045 0001114 128.5324 231.5768 15.08779344 35289,6918.066,95.441,540.701,539.16,0.0
53432.0,STARLINK-4557,PAYLOAD,2023-03-26 05:14:09,15.08799405,0.0001235,53.2149,269.8198,120.9144,239.1969,0.00074577,0.00011588,0.0,0 STARLINK-4557,1 53432U 22097AW  23085.21816518  .00011588  00000-0  74577-3 0  9993,2 53432  53.2149 269.8198 0001235 120.9144 239.1969 15.08799405 35340,6918.004,95.44,540.724,539.015,0.0
53432.0,STARLINK-4557,PAYLOAD,2023-03-26 19:32:38,15.08825995,0.0001042,53.2146,267.1439,122.9672,237.142,0.0014388,0.00022676,0.0,0 STARLINK-4557,1 53432U 22097AW  23085.81433633  .00022676  00000-0  14388-2 0  9995,2 53432  53.2146 267.1439 0001042 122.9672 237.1420 15.08825995 35917,6917.923,95.438,540.509,539.067,0.0
53432.0,STARLINK-4557,PAYLOAD,2023-03-27 13:01:52,15.08862042,9.88e-05,53.2145,263.8727,123.4568,236.6518,0.001431,0.00022573,0.0,0 STARLINK-4557,1 53432U 22097AW  23086.54297239  .00022573  00000-0  14310-2 0  9997,2 53432  53.2145 263.8727 0000988 123.4568 236.6518 15.08862042 36026,6917.813,95.436,540.361,538.995,0.0
53432.0,STARLINK-4557,PAYLOAD,2023-03-27 19:23:24,15.08875858,9.45e-05,53.2146,262.6835,118.7764,241.3323,0.0015831,0.00025022,0.0,0 STARLINK-4557,1 53432U 22097AW  23086.80792700  .00025022  00000-0  15831-2 0  9990,2 53432  53.2146 262.6835 0000945 118.7764 241.3323 15.08875858 36062,6917.771,95.435,540.29,538.982,0.0
53432.0,STARLINK-4557,PAYLOAD,2023-03-28 04:55:43,15.08868172,7.57e-05,53.2153,260.8993,96.5501,263.5578,0.00096883,0.00015176,0.0,0 STARLINK-4557,1 53432U 22097AW  23087.20536276  .00015176  00000-0  96883-3 0  9995,2 53432  53.2153 260.8993 0000757  96.5501 263.5578 15.08868172 35640,6917.794,95.436,540.183,539.136,0.0
53432.0,STARLINK-4557,PAYLOAD,2023-03-28 11:17:15,15.08875286,0.0001152,53.2133,259.7101,96.5988,263.5136,0.00093491,0.00014637,0.0,0 STARLINK-4557,1 53432U 22097AW  23087.47031960  .00014637  00000-0  93491-3 0  9997,2 53432  53.2133 259.7101 0001152  96.5988 263.5136 15.08875286 36167,6917.773,95.435,540.434,538.841,0.0
53432.0,STARLINK-4557,PAYLOAD,2023-03-28 16:03:24,15.08867217,8.08e-05,53.2151,258.8186,92.0632,268.0453,0.0014021,0.00022113,0.0,0 STARLINK-4557,1 53432U 22097AW  23087.66903807  .00022113  00000-0  14021-2 0  9995,2 53432  53.2151 258.8186 0000808  92.0632 268.0453 15.08867217 35711,6917.797,95.436,540.221,539.103,0.0
53432.0,STARLINK-4557,PAYLOAD,2023-03-28 17:38:47,15.08869227,6.94e-05,53.215,258.5212,93.1309,266.9762,0.0015722,0.00024842,0.0,0 STARLINK-4557,1 53432U 22097AW  23087.73527653  .00024842  00000-0  15722-2 0  9994,2 53432  53.2150 258.5212 0000694  93.1309 266.9762 15.08869227 36201,6917.791,95.436,540.136,539.176,0.0
53432.0,STARLINK-4557,PAYLOAD,2023-03-29 04:46:29,15.08865534,7.74e-05,53.2145,256.4392,66.7033,293.404,0.0013819,0.00021789,0.0,0 STARLINK-4557,1 53432U 22097AW  23088.19895479  .00021789  00000-0  13819-2 0  9991,2 53432  53.2145 256.4392 0000774  66.7033 293.4040 15.08865534 35794,6917.802,95.436,540.203,539.132,0.0
53432.0,STARLINK-4557,PAYLOAD,2023-03-29 11:08:02,15.08843078,9.95e-05,53.2155,255.2508,55.4399,304.6687,0.00076864,0.00011967,0.0,0 STARLINK-4557,1 53432U 22097AW  23088.46391726  .00011967  00000-0  76864-3 0  9994,2 53432  53.2155 255.2508 0000995  55.4399 304.6687 15.08843078 35832,6917.871,95.437,540.424,539.048,0.0
